7P/Pons-Winnecke,e,22.3646,93.3808,172.5601,3.415699,0.1561294,0.63854648,293.9463,03/30.0/2020,2000,g  9.0,4.0
# From MPC 75715
8P/Tuttle,e,54.9121,270.2061,207.4958,5.701154,0.0724035,0.81999318,322.6511,03/30.0/2020,2000,g  9.0,4.0
# From MPEC 2019-JE2
9P/Tempel,e,10.4729,68.7365,179.3076,3.147383,0.1765142,0.50954436,235.6082,03/30.0/2020,2000,g  9.0,4.0
# From MPC114607
10P/Tempel,e,12.0397,117.8087,195.5076,3.060856,0.1840516,0.53844315,293.8679,03/30.0/2020,2000,g  5.0,10.0
# From MPEC 2017-L52
11P/Tempel-Swift-LINEAR,e,14.4216,238.9334,167.8964,3.284578,0.1655712,0.57709208,320.0684,03/30.0/2020,2000,g  9.0,4.0
# From  27, 604
12P/Pons-Brooks,e,74.0665,255.7025,199.0600,17.07196,0.0139727,0.95427087,339.2746,03/30.0/2020,2000,g  5.0,6.0
# From  27, 604
13P/Olbers,e,44.6272,85.8409,64.5788,16.66504,0.0144875,0.92976188,337.4809,03/30.0/2020,2000,g  5.0,6.0
# From MPC100283
14P/Wolf,e,27.9007,202.0880,158.9799,4.259463,0.1121171,0.35650090,95.1868,03/30.0/2020,2000,g  5.5,12.0
# From MPC 92276
15P/Finlay,e,6.7974,13.7210,347.8403,3.503819,0.1502767,0.71690000,289.2770,03/30.0/2020,2000,g 12.0,4.0
# From MPC 92276
16P/Brooks,e,3.0081,138.9124,245.1349,3.660945,0.1407065,0.48746709,305.9818,03/30.0/2020,2000,g  7.5,10.0
# From MPC114607
17P/Holmes,e,19.0237,326.6440,24.5374,3.636803,0.1421099,0.42823849,313.5308,03/30.0/2020,2000,g 10.0,6.0
# From MPC 92984
19P/Borrelly,e,29.5314,74.5229,351.8003,3.602673,0.1441341,0.63919835,262.9722,03/30.0/2020,2000,g  4.5,10.0
# From MPC111773
21P/Giacobini-Zinner,e,32.0066,195.3721,172.8475,3.496300,0.1507617,0.71055232,85.4332,03/30.0/2020,2000,g  9.0,6.0
# From MPC 94283
22P/Kopff,e,4.7417,120.8362,162.9472,3.443392,0.1542497,0.54885400,249.2551,03/30.0/2020,2000,g  3.0,10.4
# From MPC 14747
23P/Brorsen-Metcalf,e,19.1509,312.3491,128.8927,16.95657,0.0141155,0.97094167,0.0000,08/15.4693/1989,2000,g 10.0,6.0
# From MPC110085
24P/Schaumasse,e,11.7092,79.5107,57.7159,4.065085,0.1202540,0.70774613,103.8021,03/30.0/2020,2000,g  6.5,14.0
# From MPC 94674
26P/Grigg-Skjellerup,e,22.4467,211.5361,2.1939,3.013780,0.1883809,0.64074397,102.7196,03/30.0/2020,2000,g 12.0,16.0
# From MPC 78188
27P/Crommelin,e,29.1178,250.5755,196.0085,9.191953,0.0353665,0.91792332,112.1456,03/30.0/2020,2000,g 12.0,8.0
# From MPC114607
28P/Neujmin,e,14.3113,346.3449,347.4342,6.970354,0.0535577,0.77362410,341.4178,03/30.0/2020,2000,g  8.5,6.0
# From MPEC 2019-VB6
29P/Schwassmann-Wachmann,e,9.3670,312.3798,48.0968,6.031459,0.0665381,0.04383693,25.5467,03/30.0/2020,2000,g  4.0,4.0
# From MPC110085
30P/Reinmuth,e,8.3772,118.9729,12.8813,3.734766,0.1365554,0.51550584,129.2759,03/30.0/2020,2000,g  9.5,6.0
# From MPC108597
31P/Schwassmann-Wachmann,e,4.5473,114.1134,18.3098,4.242264,0.1127996,0.19258120,30.2451,03/30.0/2020,2000,g  5.0,8.0
# From MPC 92276
32P/Comas Sola,e,9.9373,57.5934,53.3488,4.497804,0.1033245,0.55719219,205.8266,03/30.0/2020,2000,g  6.5,8.0
# From MPEC 2013-O31
33P/Daniel,e,22.3442,66.3649,20.6413,4.081155,0.1195445,0.45307512,158.1040,03/30.0/2020,2000,g 10.0,12.0
# From  15, 452
35P/Herschel-Rigollet,e,64.594,356.303,29.108,28.5693,0.006454,0.9733904,0.000,12/24.2929/2091,2000,g  9.0,4.0
# From MPC105240
36P/Whipple,e,9.9529,181.8638,200.7671,4.129907,0.1174339,0.26835500,352.6463,03/30.0/2020,2000,g  8.5,6.0
# From MPEC 2018-HA5
37P/Forbes,e,8.9567,314.5667,330.0651,3.458819,0.1532189,0.53416248,106.6031,03/30.0/2020,2000,g 10.5,4.8
# From MPEC 2018-S50
38P/Stephan-Oterma,e,18.3536,77.9966,359.5552,11.26280,0.0260756,0.85899606,13.1704,03/30.0/2020,2000,g  3.5,12.0
# From MPC115887
39P/Oterma,e,1.5612,299.2559,94.8917,7.409590,0.0488667,0.22370736,304.3946,03/30.0/2020,2000,g  7.0,6.0
# From MPC100283
40P/Vaisala,e,11.4711,133.7886,47.4639,4.950072,0.0894925,0.63016891,175.6928,03/30.0/2020,2000,g  5.5,12.0
# From MPC105240
41P/Tuttle-Giacobini-Kresak,e,9.2215,141.0040,62.2601,3.085787,0.1818256,0.66042848,196.8585,03/30.0/2020,2000,g 10.0,16.0
# From MPC 94283
42P/Neujmin,e,3.9884,150.1994,147.1521,4.873013,0.0916237,0.58540946,166.3501,03/30.0/2020,2000,g 13.0,6.0
# From MPC102956
43P/Wolf-Harrington,e,9.4338,244.5859,223.9429,4.302179,0.1104514,0.44076902,144.1624,03/30.0/2020,2000,g  8.0,6.0
# From MPC 89313
44P/Reinmuth,e,5.8982,286.4827,58.1228,3.688954,0.1391071,0.42698492,255.0163,03/30.0/2020,2000,g  8.3,6.0
# From MPC103849
45P/Honda-Mrkos-Pajdusakova,e,4.3257,87.6975,327.9742,3.049554,0.1850757,0.81775381,219.9524,03/30.0/2020,2000,g 13.5,8.0
# From MPC114607
46P/Wirtanen,e,11.7445,82.1547,356.3688,3.091924,0.1812846,0.65844430,85.7761,03/30.0/2020,2000,g 14.0,6.0
# From NK 2718
47P/Ashbrook-Jackson,e,13.0326,356.9326,357.6036,4.125554,0.1176199,0.31774804,120.4105,03/30.0/2020,2000,g  9.0,4.0
# From MPEC 2015-M77
48P/Johnson,e,12.2079,110.1269,216.6077,3.500171,0.1505117,0.42728557,89.6483,03/30.0/2020,2000,g  9.0,4.0
# From MPEC 2015-M77
49P/Arend-Rigaux,e,19.0453,118.7995,332.9677,3.569829,0.1461278,0.59883382,91.1478,03/30.0/2020,2000,g  9.0,4.0
# From MPEC 2015-S97
50P/Arend,e,19.0965,355.1545,49.3589,4.089663,0.1191716,0.52847747,180.4430,03/30.0/2020,2000,g  9.5,6.0
# From NK 3013
51P-A/Harrington,e,5.4254,83.6760,269.2339,3.708627,0.1380017,0.54284048,233.5695,03/30.0/2020,2000,g 16.0,8.0
# From NK 3014
51P-A/Harrington,e,5.4247,83.6916,269.1946,3.709650,0.1379446,0.54291242,233.3209,03/30.0/2020,2000,g 10.0,8.0
# From NK 3014
51P-A/Harrington,e,5.4247,83.6916,269.1946,3.709632,0.1379456,0.54290934,233.3240,03/30.0/2020,2000,g 10.0,8.0
# From MPEC 2015-L08
51P-D/Harrington,e,5.4262,83.6815,269.1840,3.708717,0.1379967,0.54285464,233.5653,03/30.0/2020,2000,g 16.0,8.0
# From MPEC 2015-L08
51P-D/Harrington,e,5.4262,83.6805,269.1848,3.708705,0.1379973,0.54285522,233.5704,03/30.0/2020,2000,g 16.0,8.0
# From NK 3013
51P-D/Harrington,e,5.4255,83.6763,269.2336,3.708626,0.1380017,0.54284066,233.5697,03/30.0/2020,2000,g 16.0,8.0
# From NK 3013
51P-D/Harrington,e,5.4255,83.6763,269.2336,3.708626,0.1380017,0.54284080,233.5697,03/30.0/2020,2000,g 16.0,8.0
# From MPC 88330
52P/Harrington-Abell,e,10.2313,336.8379,139.6022,3.861999,0.1298631,0.53968444,288.0134,03/30.0/2020,2000,g 13.5,6.0
# From MPC100283
53P/Van Biesbroeck,e,6.6077,148.8444,134.3770,5.423840,0.0780268,0.55232075,111.5124,03/30.0/2020,2000,g  7.7,4.8
# From MPC 89011
54P/de Vico-Swift-NEAT,e,6.0606,358.8167,1.7660,3.793590,0.1333916,0.42525727,143.9726,03/30.0/2020,2000,g  9.0,4.0
# From MPC 31070
55P/Tempel-Tuttle,e,162.3693,235.4042,172.5494,10.34702,0.0296129,0.90677860,239.5909,03/30.0/2020,2000,g  9.0,4.0
# From MPC101100
56P/Slaughter-Burnham,e,8.1563,345.9784,44.0383,5.072831,0.0862638,0.50663359,116.5266,03/30.0/2020,2000,g  8.5,6.0
# From MPC 98565
57P/du Toit-Neujmin-Delporte,e,2.8500,188.7805,115.2055,3.447438,0.1539783,0.50069495,272.7822,03/30.0/2020,2000,g 12.5,6.0
# From NK 778
58P/Jackson-Neujmin,e,13.1015,159.0639,200.4641,4.082039,0.1195056,0.66253416,353.3015,03/30.0/2020,2000,g  9.0,4.0
# From MPC111774
59P/Kearns-Kwee,e,9.3412,312.8307,127.6391,4.490369,0.1035812,0.47486878,58.0499,03/30.0/2020,2000,g  7.0,6.0
# From MPEC 2015-M77
60P/Tsuchinshan,e,3.6059,267.5848,216.6900,3.514577,0.1495872,0.53750254,71.0070,03/30.0/2020,2000,g  9.0,4.0
# From MPEC 2015-Q71
61P/Shajn-Schaldach,e,5.9989,162.9888,221.9108,3.684529,0.1393577,0.42379125,229.1712,03/30.0/2020,2000,g  6.0,10.0
# From MPC109147
62P/Tsuchinshan,e,8.5781,88.2827,30.4301,3.354837,0.1603973,0.64199558,133.8568,03/30.0/2020,2000,g  8.0,10.0
# From MPC 84320
63P/Wild,e,19.7418,358.0153,169.1598,5.604144,0.0742917,0.64919368,189.3379,03/30.0/2020,2000,g 10.5,6.0
# From MPC111774
64P/Swift-Gehrels,e,8.9502,300.0004,97.1105,4.455659,0.1047939,0.68751820,53.6654,03/30.0/2020,2000,g  9.5,12.0
# From MPC104795
65P/Gunn,e,9.1836,62.0236,213.7597,3.883555,0.1287834,0.24994696,115.1729,03/30.0/2020,2000,g  5.0,6.0
# From MPC109147
66P/du Toit,e,18.6641,21.8793,257.2790,6.061298,0.0660474,0.78697873,44.9643,03/30.0/2020,2000,g  9.0,4.0
# From MPC 89011
67P/Churyumov-Gerasimenko,e,3.8938,36.9632,21.7352,3.453400,0.1535797,0.65265327,270.7863,03/30.0/2020,2000,g 11.0,4.0
# From MPC 75716
68P/Klemola,e,11.1109,175.0820,153.0632,4.948415,0.0895375,0.63748296,12.7103,03/30.0/2020,2000,g 10.0,4.0
# From MPC114607
69P/Taylor,e,22.0330,104.8308,343.5298,3.890110,0.1284580,0.41308860,48.5143,03/30.0/2020,2000,g  9.5,12.0
# From MPC 92276
70P/Kojima,e,6.5982,119.2680,1.8664,3.675079,0.1398956,0.45332993,278.3984,03/30.0/2020,2000,g 11.0,6.0
# From MPC107051
71P/Clark,e,9.4420,59.4402,209.0046,3.138109,0.1772972,0.49423574,177.9134,03/30.0/2020,2000,g  9.8,6.0
# From MPC 89011
72P/Denning-Fujikawa,e,10.9278,26.6907,346.6675,4.311875,0.1100791,0.81792959,230.8245,03/30.0/2020,2000,g 17.5,10.0
# From MPC106348
73P/Schwassmann-Wachmann,e,11.2351,69.6526,199.4334,3.093124,0.1811791,0.68573025,200.8665,03/30.0/2020,2000,g 11.5,6.0
# From MPC106348
73P-T/Schwassmann-Wachmann,e,11.2372,69.6552,199.4148,3.094684,0.1810421,0.68593344,200.7156,03/30.0/2020,2000,g 11.5,6.0
# From MPC102956
74P/Smirnova-Chernykh,e,6.6274,77.0213,90.1224,4.196837,0.1146360,0.15325880,88.7104,03/30.0/2020,2000,g  5.0,6.0
# From MPC118097
76P/West-Kohoutek-Ikemura,e,30.4567,84.1246,0.0170,3.474790,0.1521637,0.53816909,23.7171,03/30.0/2020,2000,g  8.0,12.0
# From MPC100283
77P/Longmore,e,24.3278,14.8024,196.8684,3.620064,0.1430967,0.35256954,202.7402,03/30.0/2020,2000,g  7.0,8.0
# From MPEC 2016-U66
78P/Gehrels,e,6.2486,210.5389,192.6656,3.740327,0.1362510,0.46169319,49.3700,03/30.0/2020,2000,g  9.0,4.0
# From MPC 94675
79P/du Toit-Hartley,e,3.1480,280.5251,281.8247,2.942736,0.1952437,0.61907657,110.0717,03/30.0/2020,2000,g 16.0,4.0
# From MPEC 2014-P41
80P/Peters-Hartley,e,29.9457,259.8222,339.2503,4.024296,0.1220869,0.59918010,239.9403,03/30.0/2020,2000,g  9.0,4.0
# From MPC105241
81P/Wild,e,3.2371,136.1073,41.7207,3.450063,0.1538025,0.53728591,207.6108,03/30.0/2020,2000,g  7.0,6.0
# From MPC 75717
